[
  {
    "name": "Le Gourmet Parisien",
    "adress": "12 Rue de Rivoli, 75001 Paris",
    "phone": "+33 1 23 45 67 01",
    "opening_hours": "10:00 - 22:00"
  },
  {
    "name": "Pizza Napoli",
    "adress": "45 Avenue Jean Jaurès, 75019 Paris",
    "phone": "+33 1 23 45 67 02",
    "opening_hours": "11:30 - 23:00"
  },
  {
    "name": "La Petite Salade",
    "adress": "8 Rue Montorgueil, 75002 Paris",
    "phone": "+33 1 23 45 67 03",
    "opening_hours": "09:00 - 21:00"
  },
  {
    "name": "Sandwich Express",
    "adress": "22 Boulevard Haussmann, 75009 Paris",
    "phone": "+33 1 23 45 67 04",
    "opening_hours": "08:00 - 18:00"
  },
  {
    "name": "Chez Luigi",
    "adress": "15 Rue Oberkampf, 75011 Paris",
    "phone": "+33 1 23 45 67 05",
    "opening_hours": "12:00 - 00:00"
  },
  {
    "name": "Viva Italia",
    "adress": "60 Rue de Rennes, 75006 Paris",
    "phone": "+33 1 23 45 67 06",
    "opening_hours": "11:00 - 23:30"
  },
  {
    "name": "Nature & Frais",
    "adress": "3 Rue Sedaine, 75011 Paris",
    "phone": "+33 1 23 45 67 07",
    "opening_hours": "10:00 - 20:00"
  },
  {
    "name": "L'Authentique",
    "adress": "90 Rue de la Roquette, 75011 Paris",
    "phone": "+33 1 23 45 67 08",
    "opening_hours": "11:00 - 23:00"
  },
  {
    "name": "Le Jardin Secret",
    "adress": "27 Rue Cler, 75007 Paris",
    "phone": "+33 1 23 45 67 09",
    "opening_hours": "09:00 - 22:00"
  },
  {
    "name": "Urban Bites",
    "adress": "102 Avenue de France, 75013 Paris",
    "phone": "+33 1 23 45 67 10",
    "opening_hours": "07:30 - 19:30"
  },
  {
    "name": "Brasserie Belle Époque",
    "adress": "5 Rue Royale, 75008 Paris",
    "phone": "+33 1 23 45 67 11",
    "opening_hours": "12:00 - 23:00"
  },
  {
    "name": "Mamma Roma",
    "adress": "18 Rue de Charonne, 75011 Paris",
    "phone": "+33 1 23 45 67 12",
    "opening_hours": "12:00 - 22:30"
  },
  {
    "name": "Green Bowl",
    "adress": "33 Rue Saint-Denis, 75001 Paris",
    "phone": "+33 1 23 45 67 13",
    "opening_hours": "10:00 - 20:00"
  },
  {
    "name": "Le Coin du Sandwich",
    "adress": "74 Rue de Vaugirard, 75006 Paris",
    "phone": "+33 1 23 45 67 14",
    "opening_hours": "08:00 - 16:00"
  },
  {
    "name": "Chez Marie",
    "adress": "6 Rue des Martyrs, 75009 Paris",
    "phone": "+33 1 23 45 67 15",
    "opening_hours": "11:30 - 22:00"
  },
  {
    "name": "La Table Verte",
    "adress": "21 Rue du Temple, 75004 Paris",
    "phone": "+33 1 23 45 67 16",
    "opening_hours": "10:00 - 21:30"
  },
  {
    "name": "Bistro du Marché",
    "adress": "17 Rue de la Paix, 75002 Paris",
    "phone": "+33 1 23 45 67 17",
    "opening_hours": "12:00 - 23:00"
  },
  {
    "name": "La Bonne Pizza",
    "adress": "48 Rue Mouffetard, 75005 Paris",
    "phone": "+33 1 23 45 67 18",
    "opening_hours": "11:00 - 22:30"
  },
  {
    "name": "Côté Jardin",
    "adress": "85 Rue Lecourbe, 75015 Paris",
    "phone": "+33 1 23 45 67 19",
    "opening_hours": "09:30 - 20:00"
  },
  {
    "name": "Maison du Goût",
    "adress": "70 Rue de Charenton, 75012 Paris",
    "phone": "+33 1 23 45 67 20",
    "opening_hours": "10:00 - 22:00"
  }
]
